SatCatId,ObjectName,LaunchYear,OrbitalPeriod,LaunchMass,StatusCode,Inclination,Status,UcsData,OrbitClassEstimated,LaunchSiteCountry,Owner,UseType,Purpose,LaunchVehicleClass,TLE1,TLE2,MeanMotion,Eccentricity,OrbitClass
12677,HIMAWARI-2 (GMS-2),1981,1446.43,-1.0,-,10.5,Inactive,0,GSO,Japan,Japan,Unknown,Unknown,Unknown,1 12677U 81076A   23087.52389787 -.00000340  00000+0  00000+0 0  9990,2 12677  10.4955 313.6423 0006734 297.3635 253.3679  0.99555283120516,0.99555283,0.0006734,GSO
12681,COSMOS 1295,1981,104.62,-1.0,UNK,82.91,Inactive,0,LEO,Russia,Russia/USSR,Unknown,Unknown,Unknown,1 12681U 81077A   23087.59663137  .00000082  00000+0  68014-4 0  9993,2 12681  82.9136 277.6030 0043206 324.6308  97.1266 13.76465441 90376,13.76465441,0.0043206,LEO
12783,COSMOS 1299,1981,103.94,-1.0,UNK,65.11,Inactive,0,LEO,Kazakhstan,Russia/USSR,Unknown,Unknown,Unknown,1 12783U 81081A   23087.58490119 -.00000034  00000+0  46979-4 0  9992,2 12783  65.1151 243.3438 0050515 241.9482 117.6466 13.85417703104279,13.85417703,0.0050515,LEO
12785,COSMOS 1300,1981,94.58,-1.0,UNK,82.5,Inactive,0,LEO,Russia,Russia/USSR,Unknown,Unknown,Unknown,1 12785U 81082A   23087.56599953  .00008563  00000+0  36821-3 0  9997,2 12785  82.5007 142.6383 0002595 110.8971 249.2543 15.22506393271782,15.22506393,0.0002595,LEO
12791,COSMOS 1302,1981,100.4,-1.0,UNK,74.03,Inactive,0,LEO,Russia,Russia/USSR,Unknown,Unknown,Unknown,1 12791U 81084A   23087.56084106  .00000393  00000+0  14886-3 0  9995,2 12791  74.0276 227.7429 0019355 304.7230  55.2098 14.34299226173982,14.34299226,0.0019355,LEO
12803,COSMOS 1304,1981,103.78,-1.0,UNK,82.94,Inactive,0,LEO,Russia,Russia/USSR,Unknown,Unknown,Unknown,1 12803U 81087A   23087.42935424  .00000140  00000+0  10494-3 0  9996,2 12803  82.9370 215.7800 0045179 338.2264  21.6977 13.87598978479706,13.87598978,0.0045179,LEO
12818,COSMOS 1305,1981,263.69,-1.0,UNK,62.87,Inactive,0,MEO,Russia,Russia/USSR,Unknown,Unknown,Unknown,1 12818U 81088A   23086.87818622  .00000050  00000+0  23495-3 0  9996,2 12818  62.8655 279.3840 4816824 240.0942  63.7507  5.46092627828457,5.46092627,0.4816824,MEO
12835,COSMOS 1308,1981,104.69,-1.0,UNK,82.92,Inactive,0,LEO,Russia,Russia/USSR,Unknown,Unknown,Unknown,1 12835U 81091A   23087.16983127  .00000099  00000+0  86794-4 0  9990,2 12835  82.9213 330.1993 0028424 137.9953 334.0134 13.75473778 83743,13.75473778,0.0028424,LEO
12848,AUREOLE 3,1981,100.55,-1.0,UNK,82.48,Inactive,0,LEO,Russia,France,Unknown,Unknown,Unknown,1 12848U 81094A   23087.58740828  .00007934  00000+0  45718-3 0  9997,2 12848  82.4773 257.9272 0563390 265.7637  87.9009 14.32110910 90253,14.3211091,0.056339,LEO
12855,SBS 2,1981,1438.29,-1.0,-,12.13,Inactive,0,GSO,USA,USA,Unknown,Unknown,Unknown,1 12855U 81096A   23087.19702090 -.00000231  00000+0  00000+0 0  9998,2 12855  12.1329 329.8823 0005294 169.7319  36.7439  1.00118817106828,1.00118817,0.0005294,GSO
12879,COSMOS 1312,1981,115.91,-1.0,UNK,82.6,Inactive,0,LEO,Russia,Russia/USSR,Unknown,Unknown,Unknown,1 12879U 81098A   23087.49992111  .00000026  00000+0  11820-3 0  9991,2 12879  82.6002 228.0660 0007742 150.5330 276.8275 12.42363454423435,12.42363454,0.0007742,LEO
12897,RADUGA 10,1981,1436.4,-1.0,-,9.43,Inactive,0,GSO,Kazakhstan,Russia/USSR,Unknown,Unknown,Unknown,1 12897U 81102A   23087.13878156 -.00000145  00000+0  00000+0 0  9997,2 12897   9.4334 305.7068 0005482 178.9630 190.5122  1.00250663105542,1.00250663,0.0005482,GSO
12933,COSMOS 1317,1981,719.01,-1.0,UNK,71.57,Inactive,0,MEO,Russia,Russia/USSR,Unknown,Unknown,Unknown,1 12933U 81108A   23087.36949206  .00000298  00000+0  00000+0 0  9992,2 12933  71.5661 156.1676 5257857 355.7599 357.7345  2.00276667302690,2.00276667,0.5257857,MEO
12967,SATCOM 3R,1981,1437.98,-1.0,UNK,13.46,Inactive,0,GSO,USA,USA,Unknown,Unknown,Unknown,1 12967U 81114A   23087.49289510 -.00000154  00000+0  00000+0 0  9997,2 12967  13.4610 340.5100 0001188 358.5431 184.8775  1.00140460116286,1.0014046,0.0001188,GSO
12975,COSMOS 1320,1981,117.26,-1.0,UNK,73.98,Inactive,0,LEO,Russia,Russia/USSR,Unknown,Unknown,Unknown,1 12975U 81116A   23087.54651559 -.00000012  00000+0  26986-4 0  9999,2 12975  73.9796 125.0428 0096637 168.1224   0.9927 12.28023517852715,12.28023517,0.0096637,LEO
12976,COSMOS 1321,1981,117.23,-1.0,UNK,73.98,Inactive,0,LEO,Russia,Russia/USSR,Unknown,Unknown,Unknown,1 12976U 81116B   23087.52109567 -.00000006  00000+0  71559-4 0  9994,2 12976  73.9786 111.9569 0094055 157.0007  11.8001 12.28377066853258,12.28377066,0.0094055,LEO
12977,COSMOS 1322,1981,117.2,-1.0,UNK,73.98,Inactive,0,LEO,Russia,Russia/USSR,Unknown,Unknown,Unknown,1 12977U 81116C   23087.46574786 -.00000013  00000+0  16388-4 0  9994,2 12977  73.9782 100.0396 0092682 140.4854 331.7898 12.28706692853723,12.28706692,0.0092682,LEO
12978,COSMOS 1323,1981,117.15,-1.0,UNK,73.98,Inactive,0,LEO,Russia,Russia/USSR,Unknown,Unknown,Unknown,1 12978U 81116D   23087.44088758 -.00000009  00000+0  46668-4 0  9991,2 12978  73.9793  83.0708 0089348 122.9486 348.7851 12.29185124854454,12.29185124,0.0089348,LEO
12979,COSMOS 1324,1981,117.1,-1.0,UNK,73.98,Inactive,0,LEO,Russia,Russia/USSR,Unknown,Unknown,Unknown,1 12979U 81116E   23087.37027990 -.00000008  00000+0  52273-4 0  9993,2 12979  73.9813  63.5652 0086720  99.9234  51.2313 12.29716834855250,12.29716834,0.008672,LEO
12980,COSMOS 1325,1981,117.06,-1.0,UNK,73.98,Inactive,0,LEO,Russia,Russia/USSR,Unknown,Unknown,Unknown,1 12980U 81116F   23087.37650212  .00000020  00000+0  28806-3 0  9991,2 12980  73.9834  49.4408 0084588  82.7480  32.2676 12.30113431855842,12.30113431,0.0084588,LEO
12981,COSMOS 1326,1981,116.99,-1.0,UNK,73.99,Inactive,0,LEO,Russia,Russia/USSR,Unknown,Unknown,Unknown,1 12981U 81116G   23087.26088679  .00000006  00000+0  17252-3 0  9999,2 12981  73.9861  23.2146 0081727  50.3615 100.8620 12.30832591837357,12.30832591,0.0081727,LEO
12982,COSMOS 1327,1981,116.92,-1.0,UNK,73.99,Inactive,0,LEO,Russia,Russia/USSR,Unknown,Unknown,Unknown,1 12982U 81116H   23087.46623014  .00000004  00000+0  15583-3 0  9993,2 12982  73.9864 354.1075 0076524  21.6531  89.7763 12.31623751858123,12.31623751,0.0076524,LEO
12987,COSMOS 1328,1981,95.26,-1.0,UNK,82.5,Inactive,0,LEO,Russia,Russia/USSR,Unknown,Unknown,Unknown,1 12987U 81117A   23087.17481326  .00006731  00000+0  39245-3 0  9999,2 12987  82.5047 344.0754 0017961 349.8328  10.2536 15.11680088250252,15.11680088,0.0017961,LEO
12994,INTELSAT 503,1981,1447.73,-1.0,-,12.89,Inactive,0,GSO,USA,INTELSAT,Unknown,Unknown,Unknown,1 12994U 81119A   23087.37997731  .00000070  00000+0  00000+0 0  9996,2 12994  12.8870 335.3313 0033453 228.1387 334.9275  0.99465749114993,0.99465749,0.0033453,GSO
12997,RADIO 3,1981,118.44,-1.0,UNK,82.96,Inactive,0,LEO,Russia,Russia/USSR,Unknown,Unknown,Unknown,1 12997U 81120A   23087.34725759  .00000049  00000+0  40535-3 0  9994,2 12997  82.9642 197.1795 0058470 209.2531 206.4914 12.15838854831683,12.15838854,0.005847,LEO
12998,RADIO 8,1981,119.68,-1.0,UNK,82.96,Inactive,0,LEO,Russia,Russia/USSR,Unknown,Unknown,Unknown,1 12998U 81120B   23087.34345338  .00000156  00000+0  17476-2 0  9992,2 12998  82.9618  38.1112 0019803  12.9720 104.1999 12.03168724812630,12.03168724,0.0019803,LEO
12999,RADIO 5,1981,119.47,-1.0,UNK,82.97,Inactive,0,LEO,Russia,Russia/USSR,Unknown,Unknown,Unknown,1 12999U 81120C   23087.28441161 -.00000080  00000+0 -10374-2 0  9995,2 12999  82.9672   5.2520 0013072 206.9564 271.5383 12.05281537815798,12.05281537,0.0013072,LEO
13000,RADIO 4,1981,119.31,-1.0,UNK,82.97,Inactive,0,LEO,Russia,Russia/USSR,Unknown,Unknown,Unknown,1 13000U 81120D   23087.50018617  .00000044  00000+0  38760-3 0  9998,2 13000  82.9666 341.9205 0019234  73.4436  43.1575 12.06894378818205,12.06894378,0.0019234,LEO
13001,RADIO 7,1981,119.11,-1.0,UNK,82.96,Inactive,0,LEO,Russia,Russia/USSR,Unknown,Unknown,Unknown,1 13001U 81120E   23087.56598056  .00000089  00000+0  88348-3 0  9991,2 13001  82.9571 307.2212 0023103 282.4340 137.5108 12.08918854821268,12.08918854,0.0023103,LEO
13002,RADIO 6,1981,118.63,-1.0,UNK,82.96,Inactive,0,LEO,Russia,Russia/USSR,Unknown,Unknown,Unknown,1 13002U 81120F   23087.50319722  .00000014  00000+0  50145-4 0  9990,2 13002  82.9594 229.8241 0051181 344.4950  79.5111 12.13814287828704,12.13814287,0.0051181,LEO
13010,MARECS-A,1981,1515.17,-1.0,-,13.26,Inactive,0,HEO,French Guiana,ESA,Unknown,Unknown,Unknown,1 13010U 81122A   23087.27006740 -.00000156  00000+0  00000+0 0  9996,2 13010  13.2633 335.9395 0112602 237.5875 316.5333  0.95038928100178,0.95038928,0.0112602,HEO
13011,CAT 4,1981,451.67,-1.0,-,10.31,Inactive,0,MEO,French Guiana,ESA,Unknown,Unknown,Unknown,1 13011U 81122B   23087.48028903  .00002511  00000+0  57529-3 0  9993,2 13011  10.3139 153.4021 6593224 322.4106   6.2186  3.18815122322584,3.18815122,0.6593224,MEO
13012,MOLNIYA 1-52,1981,717.04,-1.0,UNK,61.65,Inactive,0,MEO,Kazakhstan,Russia/USSR,Unknown,Unknown,Unknown,1 13012U 81123A   23086.50764493  .00001037  00000+0  16477-1 0  9995,2 13012  61.6452 238.2843 7177672 258.7687  19.8994  2.00824904302254,2.00824904,0.7177672,MEO
13027,COSMOS 1331,1982,100.22,-1.0,UNK,74.05,Inactive,0,LEO,Russia,Russia/USSR,Unknown,Unknown,Unknown,1 13027U 82001A   23087.57542697  .00000313  00000+0  11432-3 0  9999,2 13027  74.0482 159.0686 0023453  33.1477 327.1140 14.36895313158529,14.36895313,0.0023453,LEO
13033,COSMOS 1333,1982,104.86,-1.0,UNK,82.94,Inactive,0,LEO,Russia,Russia/USSR,Unknown,Unknown,Unknown,1 13033U 82003A   23087.19334316  .00000054  00000+0  42131-4 0  9996,2 13033  82.9413 314.8371 0031341 222.2809 257.2035 13.73296548 64634,13.73296548,0.0031341,LEO
13035,SATCOM 4,1982,1445.97,-1.0,UNK,13.97,Inactive,0,GSO,USA,USA,Unknown,Unknown,Unknown,1 13035U 82004A   23086.74168215 -.00000011  00000+0  00000+0 0  9990,2 13035  13.9723 344.1811 0037001 167.1598 192.9078  0.99587130113484,0.9958713,0.0037001,GSO
